ONEWEB-0656             
1 55817U 23029X   24185.57512015  .00000019  00000+0  14985-4 0  9998
2 55817  87.9202  56.3872 0001396 100.8542 259.2749 13.20769854 67631
ONEWEB-0657             
1 55818U 23029Y   24185.18202705  .00000028  00000+0  37184-4 0  9994
2 55818  87.9153  87.0622 0000990  77.5700 282.5543 13.19719255 65419
ONEWEB-0658             
1 55819U 23029Z   24184.79823248  .00000049  00000+0  89126-4 0  9998
2 55819  87.9151  87.0742 0002189  61.1348 299.0004 13.19727330 64697
ONEWEB-0660             
1 55820U 23029AA  24184.76125031  .00000245  00000+0  62724-3 0  9994
2 55820  87.8960  71.8117 0002383  75.1635 284.9759 13.14501658 65546
ONEWEB-0661             
1 55821U 23029AB  24185.40508847 -.00000798  00000+0 -21862-2 0  9999
2 55821  87.8957  71.7494 0002234  78.5757 281.5624 13.14500190 66306
ONEWEB-0662             
1 55822U 23029AC  24184.75489391 -.00000420  00000+0 -11672-2 0  9999
2 55822  87.8958  71.8876 0002232  73.9570 286.1805 13.14504348 65572
ONEWEB-0663             
1 55823U 23029AD  24185.56790487  .00000023  00000+0  24010-4 0  9990
2 55823  87.9203  56.4493 0002226  74.5560 285.5819 13.20790367 67621
ONEWEB-0664             
1 55824U 23029AE  24185.18370751 -.00000040  00000+0 -13138-3 0  9996
2 55824  87.9205  56.5394 0002279  90.5148 269.6246 13.20773175 67583
